OBJECT_NAME,OBJECT_ID,EPOCH,MEAN_MOTION,ECCENTRICITY,INCLINATION,RA_OF_ASC_NODE,ARG_OF_PERICENTER,MEAN_ANOMALY,EPHEMERIS_TYPE,CLASSIFICATION_TYPE,NORAD_CAT_ID,ELEMENT_SET_NO,REV_AT_EPOCH,BSTAR,MEAN_MOTION_DOT,MEAN_MOTION_DDOT
JCSAT-3A,2006-033A,2026-07-13T05:31:05.626272,1.00277450,.00020205,0.0121,340.5163,141.8792,19.4972,0,U,29272,999,4800,0,-.347E-5,0
KOREASAT 5 (MUGUNGWHA 5),2006-034A,2026-07-13T01:55:38.548992,1.00270727,.00017662,1.8495,82.6691,81.7250,268.5371,0,U,29349,999,4157,0,-.362E-5,0
DIRECTV 9S,2006-043A,2026-07-13T06:45:08.558784,1.00270974,.00049884,2.4856,80.5877,33.4489,177.2065,0,U,29494,999,5164,0,-.118E-5,0
OPTUS D1,2006-043B,2026-07-13T05:37:49.980000,1.00270167,.00032976,3.0993,79.3350,31.0447,57.1522,0,U,29495,999,7238,0,-.19E-5,0
BADR-4,2006-051A,2026-07-13T06:47:03.122592,1.00270166,.00047022,2.0697,80.8339,29.0520,317.4866,0,U,29526,999,5152,0,.151E-5,0
WILDBLUE-1,2006-054A,2026-07-13T06:35:00.019392,1.00271068,.00012495,2.8679,80.1561,36.8250,161.7125,0,U,29643,999,5405,0,-.55E-6,0
SKYNET 5A,2007-007B,2026-07-13T02:57:21.816288,1.00270137,.00036941,5.3640,73.4238,42.2508,314.8812,0,U,30794,999,7095,0,-.278E-5,0
ANIK F3,2007-009A,2026-07-13T06:35:29.859360,1.00270703,.00024237,1.2626,83.5371,26.8421,160.9252,0,U,31102,999,4682,0,-.5E-7,0
ASTRA 1L,2007-016A,2026-07-13T06:44:38.642784,1.00271392,.00051705,1.3867,81.3653,33.1266,253.3216,0,U,31306,999,4524,0,-.189E-5,0
GALAXY 17 (G-17),2007-016B,2026-07-13T06:53:28.464000,1.00270268,.00035495,3.0353,79.5710,34.5493,195.3842,0,U,31307,999,7006,0,-.212E-5,0
INTELSAT 11 (IS-11),2007-044B,2026-07-13T06:40:18.768864,0.99051585,.00041161,3.6309,78.3524,100.7185,223.1796,0,U,32253,999,6870,0,-.118E-5,0
WGS F1 (USA 195),2007-046A,2026-07-12T11:35:55.971744,1.00270002,.00004731,0.0143,69.0614,151.8752,200.9245,0,U,32258,999,5258,0,-.266E-5,0
SKYNET 5B,2007-056B,2026-07-13T06:44:18.386304,1.00273770,.00037309,5.3161,73.1920,40.7502,303.3828,0,U,32294,999,6845,0,.132E-5,0
ASTRA 4A,2007-057A,2026-07-13T06:38:33.937152,1.00270685,.00022413,0.0451,283.2603,195.1898,277.1362,0,U,32299,999,5190,0,.29E-6,0
HORIZONS-2,2007-063B,2026-07-13T07:05:49.396704,1.00269776,.0003528,2.6669,80.3049,19.0040,224.5170,0,U,32388,999,6807,0,-.259E-5,0
THURAYA-3,2008-001A,2026-07-13T03:30:01.781280,1.00271265,.00020866,6.0320,35.8179,76.6770,294.7294,0,U,32404,999,6775,0,.3E-7,0
THOR 5,2008-006A,2026-07-13T06:36:56.592000,1.00270854,.00022755,0.0536,235.4757,245.6948,268.4588,0,U,32487,999,6757,0,-.12E-6,0
AMC-14,2008-011A,2026-07-13T00:32:21.901344,1.00420278,.00393049,24.0400,20.2077,8.4286,347.9620,0,U,32708,999,6842,0,-.176E-5,0
DIRECTV 11,2008-013A,2026-07-13T01:01:01.130016,1.00271885,.00001747,0.0111,275.1763,318.2318,333.5856,0,U,32729,999,4585,0,-.127E-5,0
ICO G1,2008-016A,2026-07-12T23:20:11.501376,1.00272613,.00022054,5.5314,36.0599,68.0163,83.9825,0,U,32763,999,6680,0,-.177E-5,0
VINASAT-1,2008-018A,2026-07-13T05:32:13.019136,1.00270140,.0001393,0.0331,295.6559,197.2336,13.2146,0,U,32767,999,6685,0,-.331E-5,0
STAR ONE C2,2008-018B,2026-07-13T11:26:35.984832,1.00271405,.0002674,1.3051,82.2141,46.4651,269.3196,0,U,32768,999,6691,0,-.281E-5,0
AMOS-3,2008-022A,2026-07-13T12:02:02.586912,1.00487622,.0002985,0.5208,85.8300,85.0291,359.9625,0,U,32794,999,8260,0,.12E-6,0
GALAXY 18 (G-18),2008-024A,2026-07-13T12:17:30.318144,1.00270959,.0002807,0.0180,40.4081,85.1682,227.1816,0,U,32951,999,4611,0,.21E-6,0
ZHONGXING-9,2008-028A,2026-07-13T12:11:31.334784,1.00269848,.0003265,0.8327,85.0001,23.2830,98.3484,0,U,33051,999,6630,0,-.253E-5,0
SKYNET 5C,2008-030A,2026-07-13T09:57:25.912800,1.00272337,.0004038,3.8535,76.7282,45.0874,301.0284,0,U,33055,999,6621,0,-.147E-5,0
TURKSAT 3A,2008-030B,2026-07-13T11:57:10.554048,1.00269331,.0004891,0.0303,70.8410,22.6280,59.1801,0,U,33056,999,5262,0,.143E-5,0
ECHOSTAR 11,2008-035A,2026-07-13T12:09:32.711040,1.00270611,.000218,1.0709,83.8745,17.5272,262.5632,0,U,33207,999,5147,0,-.63E-6,0
SUPERBIRD-C2,2008-038A,2026-07-13T12:24:00.135936,1.00269677,.000613,2.4265,80.9360,39.5651,132.8867,0,U,33274,999,10599,0,-.313E-5,0
INMARSAT 4-F3,2008-039A,2026-07-13T10:00:33.105312,1.00272527,.0002806,4.3147,31.6906,83.9617,227.7818,0,U,33278,999,4680,0,-.146E-5,0
NIMIQ 4,2008-044A,2026-07-13T12:13:38.932032,1.00268120,.0001925,0.0399,70.6682,43.2428,278.9179,0,U,33373,999,6524,0,0,0
GALAXY 19 (G-19),2008-045A,2026-07-13T12:02:32.851968,1.00272604,.000228,0.0623,250.4882,234.0938,250.4324,0,U,33376,999,6516,0,-.143E-5,0
