JCSAT-3A                
1 29272U 06033A   26194.22992623 -.00000347  00000+0  00000+0 0  9994
2 29272   0.0121 340.5163 0002020 141.8792  19.4972  1.00277450 48006
KOREASAT 5 (MUGUNGWHA 5)
1 29349U 06034A   26194.08030728 -.00000362  00000+0  00000+0 0  9990
2 29349   1.8495  82.6691 0001766  81.7250 268.5371  1.00270727 41576
DIRECTV 9S              
1 29494U 06043A   26194.28134906 -.00000118  00000+0  00000+0 0  9995
2 29494   2.4856  80.5877 0004988  33.4489 177.2065  1.00270974 51644
OPTUS D1                
1 29495U 06043B   26194.23460625 -.00000190  00000+0  00000+0 0  9991
2 29495   3.0993  79.3350 0003297  31.0447  57.1522  1.00270167 72388
BADR-4                  
1 29526U 06051A   26194.28267503  .00000151  00000+0  00000+0 0  9996
2 29526   2.0697  80.8339 0004702  29.0520 317.4866  1.00270166 51523
WILDBLUE-1              
1 29643U 06054A   26194.27430578 -.00000055  00000+0  00000+0 0  9996
2 29643   2.8679  80.1561 0001249  36.8250 161.7125  1.00271068 54051
SKYNET 5A               
1 30794U 07007B   26194.12316917 -.00000278  00000+0  00000+0 0  9995
2 30794   5.3640  73.4238 0003694  42.2508 314.8812  1.00270137 70952
ANIK F3                 
1 31102U 07009A   26194.27465115 -.00000005  00000+0  00000+0 0  9990
2 31102   1.2626  83.5371 0002423  26.8421 160.9252  1.00270703 46822
ASTRA 1L                
1 31306U 07016A   26194.28100281 -.00000189  00000+0  00000+0 0  9998
2 31306   1.3867  81.3653 0005170  33.1266 253.3216  1.00271392 45242
GALAXY 17 (G-17)        
1 31307U 07016B   26194.28713500 -.00000212  00000+0  00000+0 0  9990
2 31307   3.0353  79.5710 0003549  34.5493 195.3842  1.00270268 70069
INTELSAT 11 (IS-11)     
1 32253U 07044B   26194.27799501 -.00000118  00000+0  00000+0 0  9991
2 32253   3.6309  78.3524 0004116 100.7185 223.1796  0.99051585 68704
WGS F1 (USA 195)        
1 32258U 07046A   26193.48328671 -.00000266  00000+0  00000+0 0  9990
2 32258   0.0143  69.0614 0000473 151.8752 200.9245  1.00270002 52583
SKYNET 5B               
1 32294U 07056B   26194.28076836  .00000132  00000+0  00000+0 0  9994
2 32294   5.3161  73.1920 0003730  40.7502 303.3828  1.00273770 68458
ASTRA 4A                
1 32299U 07057A   26194.27678168  .00000029  00000+0  00000+0 0  9990
2 32299   0.0451 283.2603 0002241 195.1898 277.1362  1.00270685 51903
HORIZONS-2              
1 32388U 07063B   26194.29571061 -.00000259  00000+0  00000+0 0  9998
2 32388   2.6669  80.3049 0003528  19.0040 224.5170  1.00269776 68071
THURAYA-3               
1 32404U 08001A   26194.14585395  .00000003  00000+0  00000+0 0  9995
2 32404   6.0320  35.8179 0002086  76.6770 294.7294  1.00271265 67754
THOR 5                  
1 32487U 08006A   26194.27565500 -.00000012  00000+0  00000+0 0  9992
2 32487   0.0536 235.4757 0002275 245.6948 268.4588  1.00270854 67570
AMC-14                  
1 32708U 08011A   26194.02247571 -.00000176  00000+0  00000+0 0  9993
2 32708  24.0400  20.2077 0039304   8.4286 347.9620  1.00420278 68422
DIRECTV 11              
1 32729U 08013A   26194.04237419 -.00000127  00000+0  00000+0 0  9996
2 32729   0.0111 275.1763 0000174 318.2318 333.5856  1.00271885 45854
ICO G1                  
1 32763U 08016A   26193.97235534 -.00000177  00000+0  00000+0 0  9999
2 32763   5.5314  36.0599 0002205  68.0163  83.9825  1.00272613 66803
VINASAT-1               
1 32767U 08018A   26194.23070624 -.00000331  00000+0  00000+0 0  9994
2 32767   0.0331 295.6559 0001393 197.2336  13.2146  1.00270140 66859
STAR ONE C2             
1 32768U 08018B   26194.47680538 -.00000281  00000+0  00000+0 0  9996
2 32768   1.3051  82.2141 0002674  46.4651 269.3196  1.00271405 66919
AMOS-3                  
1 32794U 08022A   26194.50141883  .00000012  00000+0  00000+0 0  9990
2 32794   0.5208  85.8300 0002985  85.0291 359.9625  1.00487622 82600
GALAXY 18 (G-18)        
1 32951U 08024A   26194.51215646  .00000021  00000+0  00000+0 0  9997
2 32951   0.0180  40.4081 0002807  85.1682 227.1816  1.00270959 46117
ZHONGXING-9             
1 33051U 08028A   26194.50800156 -.00000253  00000+0  00000+0 0  9996
2 33051   0.8327  85.0001 0003265  23.2830  98.3484  1.00269848 66301
SKYNET 5C               
1 33055U 08030A   26194.41488325 -.00000147  00000+0  00000+0 0  9995
2 33055   3.8535  76.7282 0004038  45.0874 301.0284  1.00272337 66215
TURKSAT 3A              
1 33056U 08030B   26194.49803882  .00000143  00000+0  00000+0 0  9998
2 33056   0.0303  70.8410 0004891  22.6280  59.1801  1.00269331 52621
ECHOSTAR 11             
1 33207U 08035A   26194.50662860 -.00000063  00000+0  00000+0 0  9994
2 33207   1.0709  83.8745 0002180  17.5272 262.5632  1.00270611 51475
SUPERBIRD-C2            
1 33274U 08038A   26194.51666824 -.00000313  00000+0  00000+0 0  9994
2 33274   2.4265  80.9360 0006130  39.5651 132.8867  1.00269677105992
INMARSAT 4-F3           
1 33278U 08039A   26194.41704983 -.00000146  00000+0  00000+0 0  9991
2 33278   4.3147  31.6906 0002806  83.9617 227.7818  1.00272527 46808
NIMIQ 4                 
1 33373U 08044A   26194.50947838  .00000000  00000+0  00000+0 0  9999
2 33373   0.0399  70.6682 0001925  43.2428 278.9179  1.00268120 65241
GALAXY 19 (G-19)        
1 33376U 08045A   26194.50176912 -.00000143  00000+0  00000+0 0  9999
2 33376   0.0623 250.4882 0002280 234.0938 250.4324  1.00272604 65165
